LEMUR-1                 
1 40044U 14033AL  20133.82701593  .00000099  00000-0  21812-4 0  9993
2 40044  97.7140 351.2132 0060391 115.2007 245.5480 14.74203909316663
LEMUR-2-JOEL            
1 40932U 15052C   20133.70802701  .00000829  00000-0  24460-4 0  9994
2 40932   6.0073 211.6418 0013514 174.8330 185.1938 14.77967086250141
LEMUR-2-CHRIS           
1 40933U 15052D   20134.47848095  .00000817  00000-0  22604-4 0  9991
2 40933   6.0054 203.1629 0014396 193.0652 166.9102 14.78118114250286
LEMUR-2-PETER           
1 40935U 15052F   20133.81273912  .00000804  00000-0  22429-4 0  9991
2 40935   6.0037 224.9539 0010111 142.8527 217.2301 14.77260149250011
LEMUR-2-XIAOQING        
1 41871U 16062C   20134.02476984  .00001997  00000-0  88089-4 0  9999
2 41871  51.6417  68.6294 0006276  89.1645 271.0053 15.26682098192801
LEMUR-2-SOKOLSKY        
1 41872U 16062D   20134.44433622  .00001918  00000-0  85592-4 0  9997
2 41872  51.6840  72.0204 0002593 187.9430 172.1509 15.26477924192840
LEMUR-2-ANUBHAVTHAKUR   
1 41873U 16062E   20134.03769308 -.00000648  00000-0 -12859-4 0  9993
2 41873  51.6780  87.0300 0002110  23.9910 336.1166 15.23600260192551
LEMUR-2-WINGO           
1 41874U 16062F   20134.43438742  .00002094  00000-0  93209-4 0  9996
2 41874  51.6549  71.7984 0011811  12.8354 347.2923 15.26124471192798
LEMUR-2-JOBANPUTRA      
1 41991U 17008AV  20134.30637322  .00001032  00000-0  44204-4 0  9990
2 41991  97.3590 200.3427 0009068  73.1707 287.0525 15.24962583179433
LEMUR-2-SPIRE-MINIONS   
1 41992U 17008AW  20133.76406008  .00001314  00000-0  53590-4 0  9996
2 41992  97.3621 201.2281 0008746  72.1683 288.0509 15.26182884179434
LEMUR-2-SATCHMO         
1 41993U 17008AX  20134.30877884  .00001061  00000-0  45171-4 0  9997
2 41993  97.3595 200.6363 0009005  72.4463 287.7758 15.25126066179450
LEMUR-2-SMITA-SHARAD    
1 41994U 17008AY  20134.12624700  .00001287  00000-0  52604-4 0  9994
2 41994  97.3615 201.4597 0008792  69.9608 290.2577 15.26140590179486
LEMUR-2-RDEATON         
1 41995U 17008AZ  20133.74075857  .00000934  00000-0  40025-4 0  9997
2 41995  97.3599 200.2066 0010179  84.5754 275.6645 15.25186585180054
LEMUR-2-TACHIKOMA       
1 41996U 17008BA  20133.69449339  .00001305  00000-0  53500-4 0  9997
2 41996  97.3644 201.1667 0009884  83.5868 276.6496 15.26015155179316
LEMUR-2-NOGUECORREIG    
1 41997U 17008BB  20133.96249035  .00001303  00000-0  53029-4 0  9993
2 41997  97.3629 201.6862 0009918  81.9622 278.2741 15.26248792179462
LEMUR-2-MIA-GRACE       
1 41998U 17008BC  20133.74305274  .00000964  00000-0  41330-4 0  9992
2 41998  97.3596 200.0301 0010092  85.2719 274.9672 15.25075889179286
LEMUR-2-ANGELA          
1 42752U 17019B   20134.02405044  .00000683  00000-0  34147-4 0  9997
2 42752  51.6416 344.3981 0009782 177.2497 182.8539 15.31455934163668
LEMUR-2-JENNYBARNA      
1 42753U 17019C   20134.19610275  .00001627  00000-0  61933-4 0  9992
2 42753  51.6414 337.4332 0009247 181.9925 178.1021 15.32946213163721
LEMUR-2-ROBMOORE        
1 42754U 17019D   20134.02343948  .00000674  00000-0  33956-4 0  9990
2 42754  51.6416 345.1145 0009683 179.4235 180.6758 15.31348334163636
LEMUR-2-SPIROVISION     
1 42755U 17019E   20134.03457737  .00001646  00000-0  62377-4 0  9993
2 42755  51.6420 338.1819 0009603 182.1175 342.2657 15.33025695163614
LEMUR-2-SHAINAJOHL      
1 42771U 17036G   20133.92729410  .00001116  00000-0  50363-4 0  9991
2 42771  97.3055 188.1008 0015519 138.1133 222.1294 15.22921119160326
LEMUR-2-XUENITERENCE    
1 42772U 17036H   20133.78181531  .00001121  00000-0  50292-4 0  9999
2 42772  97.3033 187.9892 0015016 137.4206 222.8198 15.23119909160312
LEMUR-2-LUCYBRYCE       
1 42773U 17036J   20134.12725878  .00000830  00000-0  38208-4 0  9996
2 42773  97.3087 188.9038 0015146 135.3978 224.8481 15.22940130160383
LEMUR-2-KUNGFOO         
1 42774U 17036K   20133.83071330  .00001127  00000-0  50631-4 0  9995
2 42774  97.3055 188.2306 0014952 137.1582 223.0823 15.23081123160318
LEMUR-2-LYNSEY-SYMO     
1 42779U 17036Q   20134.40706234  .00001379  00000-0  58728-4 0  9996
2 42779  97.3087 190.6640 0012857 138.6035 221.6180 15.24565729160508
LEMUR-2-LISASAURUS      
1 42780U 17036R   20134.00766021  .00000847  00000-0  38368-4 0  9991
2 42780  97.3076 189.4247 0013010 141.7523 218.4640 15.23443136160406
LEMUR-2-SAM-AMELIA      
1 42781U 17036S   20133.70881242  .00000905  00000-0  40496-4 0  9991
2 42781  97.3094 189.6303 0013055 142.2026 218.0131 15.23702817160376
LEMUR-2-MCPEAKE         
1 42782U 17036T   20133.83408934  .00001184  00000-0  51691-4 0  9998
2 42782  97.3073 189.7280 0012627 141.4577 218.7565 15.23981912160390
LEMUR-2-GREENBERG       
1 42837U 17042N   20134.33775469  .00000227  00000-0  27487-4 0  9995
2 42837  97.5292  19.1509 0014304  42.0408 318.1907 14.92162071154142
LEMUR-2-ANDIS           
1 42838U 17042P   20133.92746911  .00000089  00000-0  13973-4 0  9991
2 42838  97.5290  18.7727 0014354  42.9978 317.2361 14.92111728154084
LEMUR-2-MONSON          
1 42839U 17042Q   20134.45435641  .00000124  00000-0  17513-4 0  9990
2 42839  97.5299  19.1774 0013980  41.3613 318.8663 14.91935126154159
LEMUR-2-FURIAUS         
1 42840U 17042R   20133.89507312  .00000382  00000-0  42806-4 0  9993
2 42840  97.5298  18.8202 0014327  43.0121 317.2216 14.92065353154076
LEMUR-2-PETERG          
1 42841U 17042S   20134.36046775  .00000503  00000-0  54329-4 0  9996
2 42841  97.5313  19.6445 0013763  39.0580 321.1631 14.92357840154171
LEMUR-2-DEMBITZ         
1 42842U 17042T   20134.35114456  .00000415  00000-0  45751-4 0  9999
2 42842  97.5305  19.6163 0013869  39.8727 320.3508 14.92352365154179
LEMUR-2-ZACHARY         
1 42845U 17042W   20134.12886898  .00000095  00000-0  14433-4 0  9990
2 42845  97.5238  19.0410 0014149  43.3030 316.9299 14.92617163154151
LEMUR-2-ARTFISCHER      
1 42881U 17042BJ  20133.88877152  .00001747  00000-0  44289-4 0  9992
2 42881  96.8952   3.1904 0013063  96.3950 263.8786 15.40890408158571
LEMUR-2-ROCKETJONAH     
1 43041U 17071E   20133.84726089  .00003280  00000-0  71533-4 0  9997
2 43041  51.6363 228.2585 0000419 199.2916 160.8056 15.47327047139347
LEMUR-2-YONGLIN         
1 43045U 17071J   20133.65399889  .00002438  00000-0  53892-4 0  9996
2 43045  51.6374 225.5586 0003436 280.3652  79.6948 15.48147608137085
LEMUR-2-KEVIN           
1 43046U 17071K   20133.88258729  .00003967  00000-0  87075-4 0  9997
2 43046  51.6379 230.0677 0003370 274.9658  85.0944 15.46524138137054
LEMUR-2-BRIANDAVIE      
1 43047U 17071L   20133.85891524  .00004381  00000-0  94071-4 0  9996
2 43047  51.6363 230.5414 0002597 316.7726  43.3057 15.46894590137035
LEMUR-2-ROMACOSTE       
1 43048U 17071M   20133.84185280  .00004125  00000-0  87309-4 0  9993
2 43048  51.6369 228.2718 0002623 318.0864  41.9923 15.47493228137064
LEMUR-2-MCCULLAGH       
1 43051U 17071Q   20133.90012625  .00004915  00000-0  10258-3 0  9991
2 43051  51.6386 227.9370 0000969  86.2550 273.8549 15.47438059137021
LEMUR-2-DUNLOP          
1 43053U 17071S   20133.80968654  .00004362  00000-0  95363-4 0  9991
2 43053  51.6360 232.4282 0000897  78.9432 281.1656 15.46365571136965
LEMUR-2-LIU-POU-CHUN    
1 43054U 17071T   20133.78866069  .00004029  00000-0  87065-4 0  9996
2 43054  51.6365 229.3763 0000280 236.9411 123.1550 15.46934035137000
LEMUR-2-MCCAFFERTY      
1 43123U 18004N   20133.86339240  .00001309  00000-0  54895-4 0  9998
2 43123  97.4504 206.1322 0009976 165.5997 194.5527 15.25257281129679
LEMUR-2-PETERWEBSTER    
1 43124U 18004P   20133.85374671  .00001279  00000-0  53809-4 0  9995
2 43124  97.4508 206.0106 0010038 164.5644 195.5901 15.25185979129662
LEMUR-2-BROWNCOW        
1 43125U 18004Q   20133.86371840  .00001609  00000-0  66184-4 0  9999
2 43125  97.4516 206.3056 0009884 164.6316 195.5224 15.25582530129687
LEMUR-2-DAVEWILSON      
1 43126U 18004R   20133.84432688  .00001564  00000-0  64642-4 0  9993
2 43126  97.4515 206.1893 0009938 164.6693 195.4848 15.25461191129671
LEMUR-2-MARSHALL        
1 43165U 18010C   20133.86878956  .00001367  00000-0  59874-4 0  9999
2 43165  82.9185  68.9858 0031231 156.6992 203.5669 15.20652285127968
LEMUR-2-TALLHAMN-ATC    
1 43167U 18010E   20134.35828955  .00001006  00000-0  46868-4 0  9999
2 43167  82.9216  71.2462 0024450 168.2720 191.9090 15.18411363127871
LEMUR-2-JIN-LUEN        
1 43182U 18014C   20133.79797956  .00000157  00000-0  18897-4 0  9990
2 43182  97.6885  40.9981 0014122 353.5334   6.5703 14.96571215124324
LEMUR-2-URAMCHANSOL     
1 43183U 18014D   20133.70622734  .00000370  00000-0  37482-4 0  9991
2 43183  97.6896  40.9650 0014160 355.7634   4.3465 14.96636877124315
LEMUR-2-KADI            
1 43184U 18014E   20134.29683981  .00000778  00000-0  73218-4 0  9997
2 43184  97.6895  41.5759 0013804 354.8867   5.2212 14.96637151124400
LEMUR-2-THENICKMOLO     
1 43185U 18014F   20134.29388495  .00000934  00000-0  86913-4 0  9990
2 43185  97.6901  41.6023 0013648 355.4495   4.6600 14.96642405124406
LEMUR-2-VU              
1 43558U 18046E   20133.69481121  .00001339  00000-0  56255-4 0  9998
2 43558  51.6409 274.3545 0007786 166.3012 193.8181 15.30906202101932
LEMUR-2-ALEXANDER       
1 43559U 18046F   20133.66226677  .00002920  00000-0  10787-3 0  9995
2 43559  51.6413 274.1493 0007822 167.1611 192.9570 15.31051463101712
LEMUR-2-YUASA           
1 43560U 18046G   20133.90824887  .00001872  00000-0  73954-4 0  9992
2 43560  51.6418 273.5223 0007819 180.6696 179.4276 15.30842841101969
LEMUR-2-TOMHENDERSON    
1 43561U 18046H   20133.91773640  .00001792  00000-0  71679-4 0  9997
2 43561  51.6423 273.5851 0008043 180.0848 180.0133 15.30665642101520
LEMUR-2-ZUPANSKI        
1 43695U 18088F   20133.90189461  .00001295  00000-0  56021-4 0  9994
2 43695  85.0302 100.9536 0019868  77.9712 282.3755 15.21164632 83370
